{
  "type": "FeatureCollection",
  "features": [
    {
      "type": "Feature",
      "properties": {
        "norad_id": 66639,
        "name": "STARLINK-35908",
        "group": "last-30-days",
        "lat": -41.060536122003874,
        "lon": 81.7110877350964,
        "alt_km": 452.0864952794964,
        "timestamp": "2025-12-26T08:37:53.289838+00:00",
        "meta_object_name": "STARLINK-35908",
        "meta_object_id": "2025-271Y",
        "meta_epoch": "2025-12-25T17:17:28.282272",
        "meta_mean_motion": 15.396157,
        "meta_eccentricity": 0.00011134,
        "meta_inclination": 53.1597,
        "meta_ra_of_asc_node": 125.5009,
        "meta_arg_of_pericenter": 80.8294,
        "meta_mean_anomaly": 279.2837,
        "meta_ephemeris_type": 0,
        "meta_classification_type": "U",
        "meta_norad_cat_id": 66639,
        "meta_element_set_no": 999,
        "meta_rev_at_epoch": 621,
        "meta_bstar": 0.00096710482,
        "meta_mean_motion_dot": 0.00038474,
        "meta_mean_motion_ddot": 0,
        "tle_line1": "1 66639U 25271Y   25359.72046623  .00038474  00000+0  96710-3 0  9992",
        "tle_line2": "2 66639  53.1597 125.5009 0001113  80.8294 279.2837 15.39615700  6215"
      },
      "geometry": {
        "type": "Point",
        "coordinates": [
          81.7110877350964,
          -41.060536122003874
        ]
      }
    },
    {
      "type": "Feature",
      "properties": {
        "norad_id": 66640,
        "name": "STARLINK-35921",
        "group": "last-30-days",
        "lat": -50.08751993778876,
        "lon": 6.256326633780775,
        "alt_km": 451.70146561356614,
        "timestamp": "2025-12-26T08:37:53.289848+00:00",
        "meta_object_name": "STARLINK-35921",
        "meta_object_id": "2025-271Z",
        "meta_epoch": "2025-12-25T17:30:50.449248",
        "meta_mean_motion": 15.39636254,
        "meta_eccentricity": 1.212e-05,
        "meta_inclination": 53.1611,
        "meta_ra_of_asc_node": 125.56,
        "meta_arg_of_pericenter": 242.9433,
        "meta_mean_anomaly": 117.156,
        "meta_ephemeris_type": 0,
        "meta_classification_type": "U",
        "meta_norad_cat_id": 66640,
        "meta_element_set_no": 999,
        "meta_rev_at_epoch": 621,
        "meta_bstar": 0.00098063977,
        "meta_mean_motion_dot": 0.00039047,
        "meta_mean_motion_ddot": 0,
        "tle_line1": "1 66640U 25271Z   25359.72975057  .00039047  00000+0  98064-3 0  9997",
        "tle_line2": "2 66640  53.1611 125.5600 0000121 242.9433 117.1560 15.39636254  6215"
      },
      "geometry": {
        "type": "Point",
        "coordinates": [
          6.256326633780775,
          -50.08751993778876
        ]
      }
    },
    {
      "type": "Feature",
      "properties": {
        "norad_id": 66641,
        "name": "STARLINK-35923",
        "group": "last-30-days",
        "lat": 49.44031028336953,
        "lon": -176.60935328870013,
        "alt_km": 440.01260098022703,
        "timestamp": "2025-12-26T08:37:53.289859+00:00",
        "meta_object_name": "STARLINK-35923",
        "meta_object_id": "2025-271AA",
        "meta_epoch": "2025-12-26T04:00:01.998720",
        "meta_mean_motion": 15.39567494,
        "meta_eccentricity": 9.65e-05,
        "meta_inclination": 53.1608,
        "meta_ra_of_asc_node": 123.1448,
        "meta_arg_of_pericenter": 65.3297,
        "meta_mean_anomaly": 16.3622,
        "meta_ephemeris_type": 0,
        "meta_classification_type": "U",
        "meta_norad_cat_id": 66641,
        "meta_element_set_no": 999,
        "meta_rev_at_epoch": 602,
        "meta_bstar": 0.0017909,
        "meta_mean_motion_dot": 0.00071788,
        "meta_mean_motion_ddot": 0,
        "tle_line1": "1 66641U 25271AA  25360.16668980  .00071788  00000+0  17909-2 0  9998",
        "tle_line2": "2 66641  53.1608 123.1448 0000965  65.3297  16.3622 15.39567494  6024"
      },
      "geometry": {
        "type": "Point",
        "coordinates": [
          -176.60935328870013,
          49.44031028336953
        ]
      }
    },
    {
      "type": "Feature",
      "properties": {
        "norad_id": 66642,
        "name": "STARLINK-35926",
        "group": "last-30-days",
        "lat": 36.33341168262189,
        "lon": 155.7453303581336,
        "alt_km": 441.93469269289835,
        "timestamp": "2025-12-26T08:37:53.289869+00:00",
        "meta_object_name": "STARLINK-35926",
        "meta_object_id": "2025-271AB",
        "meta_epoch": "2025-12-26T04:00:01.998720",
        "meta_mean_motion": 15.39592705,
        "meta_eccentricity": 0.0001013,
        "meta_inclination": 53.1608,
        "meta_ra_of_asc_node": 123.1931,
        "meta_arg_of_pericenter": 71.612,
        "meta_mean_anomaly": 346.1576,
        "meta_ephemeris_type": 0,
        "meta_classification_type": "U",
        "meta_norad_cat_id": 66642,
        "meta_element_set_no": 999,
        "meta_rev_at_epoch": 608,
        "meta_bstar": 0.0019628,
        "meta_mean_motion_dot": 0.00078855,
        "meta_mean_motion_ddot": 0,
        "tle_line1": "1 66642U 25271AB  25360.16668980  .00078855  00000+0  19628-2 0  9991",
        "tle_line2": "2 66642  53.1608 123.1931 0001013  71.6120 346.1576 15.39592705  6083"
      },
      "geometry": {
        "type": "Point",
        "coordinates": [
          155.7453303581336,
          36.33341168262189
        ]
      }
    },
    {
      "type": "Feature",
      "properties": {
        "norad_id": 66643,
        "name": "STARLINK-35918",
        "group": "last-30-days",
        "lat": -23.083818428676473,
        "lon": 103.80273934737511,
        "alt_km": 450.67793296475156,
        "timestamp": "2025-12-26T08:37:53.289880+00:00",
        "meta_object_name": "STARLINK-35918",
        "meta_object_id": "2025-271AC",
        "meta_epoch": "2025-12-25T15:37:18.413184",
        "meta_mean_motion": 15.39654781,
        "meta_eccentricity": 0.0001349,
        "meta_inclination": 53.1627,
        "meta_ra_of_asc_node": 125.776,
        "meta_arg_of_pericenter": 83.2816,
        "meta_mean_anomaly": 276.8342,
        "meta_ephemeris_type": 0,
        "meta_classification_type": "U",
        "meta_norad_cat_id": 66643,
        "meta_element_set_no": 999,
        "meta_rev_at_epoch": 620,
        "meta_bstar": 0.0010433,
        "meta_mean_motion_dot": 0.00041607,
        "meta_mean_motion_ddot": 0,
        "tle_line1": "1 66643U 25271AC  25359.65090756  .00041607  00000+0  10433-2 0  9994",
        "tle_line2": "2 66643  53.1627 125.7760 0001349  83.2816 276.8342 15.39654781  6203"
      },
      "geometry": {
        "type": "Point",
        "coordinates": [
          103.80273934737511,
          -23.083818428676473
        ]
      }
    },
    {
      "type": "Feature",
      "properties": {
        "norad_id": 66644,
        "name": "STARLINK-35938",
        "group": "last-30-days",
        "lat": 35.06880527627096,
        "lon": 154.04269410047948,
        "alt_km": 442.4037008706,
        "timestamp": "2025-12-26T08:37:53.289897+00:00",
        "meta_object_name": "STARLINK-35938",
        "meta_object_id": "2025-271AD",
        "meta_epoch": "2025-12-26T04:00:01.998720",
        "meta_mean_motion": 15.39573608,
        "meta_eccentricity": 9.05e-05,
        "meta_inclination": 53.1607,
        "meta_ra_of_asc_node": 123.1972,
        "meta_arg_of_pericenter": 91.6585,
        "meta_mean_anomaly": 324.2542,
        "meta_ephemeris_type": 0,
        "meta_classification_type": "U",
        "meta_norad_cat_id": 66644,
        "meta_element_set_no": 999,
        "meta_rev_at_epoch": 575,
        "meta_bstar": 0.0017976,
        "meta_mean_motion_dot": 0.00072075,
        "meta_mean_motion_ddot": 0,
        "tle_line1": "1 66644U 25271AD  25360.16668980  .00072075  00000+0  17976-2 0  9995",
        "tle_line2": "2 66644  53.1607 123.1972 0000905  91.6585 324.2542 15.39573608  5759"
      },
      "geometry": {
        "type": "Point",
        "coordinates": [
          154.04269410047948,
          35.06880527627096
        ]
      }
    },
    {
      "type": "Feature",
      "properties": {
        "norad_id": 66645,
        "name": "SHENZHOU-22",
        "group": "last-30-days",
        "lat": 15.16009453362648,
        "lon": -48.14626151970291,
        "alt_km": 389.3222382674203,
        "timestamp": "2025-12-26T08:37:53.289908+00:00",
        "meta_object_name": "SHENZHOU-22",
        "meta_object_id": "2025-272A",
        "meta_epoch": "2025-12-25T20:14:16.934784",
        "meta_mean_motion": 15.59690263,
        "meta_eccentricity": 0.00084341,
        "meta_inclination": 41.4681,
        "meta_ra_of_asc_node": 297.125,
        "meta_arg_of_pericenter": 146.1754,
        "meta_mean_anomaly": 213.9624,
        "meta_ephemeris_type": 0,
        "meta_classification_type": "U",
        "meta_norad_cat_id": 66645,
        "meta_element_set_no": 999,
        "meta_rev_at_epoch": 26598,
        "meta_bstar": 0.00020858961,
        "meta_mean_motion_dot": 0.00016869,
        "meta_mean_motion_ddot": 0,
        "tle_line1": "1 66645U 25272A   25359.84325156  .00016869  00000+0  20859-3 0  9999",
        "tle_line2": "2 66645  41.4681 297.1250 0008434 146.1754 213.9624 15.59690263265989"
      },
      "geometry": {
        "type": "Point",
        "coordinates": [
          -48.14626151970291,
          15.16009453362648
        ]
      }
    }
  ]
}